[{"OBJECT_NAME":"STARLINK-30477","OBJECT_ID":"2023-146X","EPOCH":"2026-03-09T01:38:18.250656","MEAN_MOTION":15.27558432,"ECCENTRICITY":0.0001519,"INCLINATION":42.9994,"RA_OF_ASC_NODE":314.0913,"ARG_OF_PERICENTER":268.5622,"MEAN_ANOMALY":91.5056,"EPHEMERIS_TYPE":0,"CLASSIFICATION_TYPE":"U","NORAD_CAT_ID":57912,"ELEMENT_SET_NO":999,"REV_AT_EPOCH":13700,"BSTAR":-0.00024319354,"MEAN_MOTION_DOT":-6.944e-5,"MEAN_MOTION_DDOT":0},{"OBJECT_NAME":"OBJECT A","OBJECT_ID":"2025-013A","EPOCH":"2026-03-09T23:29:31.895232","MEAN_MOTION":15.29260221,"ECCENTRICITY":0.0010321,"INCLINATION":97.6364,"RA_OF_ASC_NODE":244.5149,"ARG_OF_PERICENTER":282.3775,"MEAN_ANOMALY":77.6309,"EPHEMERIS_TYPE":0,"CLASSIFICATION_TYPE":"U","NORAD_CAT_ID":62729,"ELEMENT_SET_NO":999,"REV_AT_EPOCH":6276,"BSTAR":0.0013206527,"MEAN_MOTION_DOT":0.00037616,"MEAN_MOTION_DDOT":0}]
